[{"CCSDS_OMM_VERS":"3.0","COMMENT":"GENERATED VIA SPACE-TRACK.ORG API","CREATION_DATE":"2013-10-09T01:07:54","ORIGINATOR":"18 SPCS","OBJECT_NAME":"FENGYUN 1C DEB","OBJECT_ID":"1999-025AFV","CENTER_NAME":"EARTH","REF_FRAME":"TEME","TIME_SYSTEM":"UTC","MEAN_ELEMENT_THEORY":"SGP4","EPOCH":"2013-10-07T19:29:10.411584","MEAN_MOTION":"15.44265561","ECCENTRICITY":"0.00191780","INCLINATION":"98.5893","RA_OF_ASC_NODE":"7.6895","ARG_OF_PERICENTER":"12.3172","MEAN_ANOMALY":"347.8536","EPHEMERIS_TYPE":"0","CLASSIFICATION_TYPE":"U","NORAD_CAT_ID":"30458","ELEMENT_SET_NO":"999","REV_AT_EPOCH":"32857","BSTAR":"0.29554000000000","MEAN_MOTION_DOT":"0.17003521","MEAN_MOTION_DDOT":"0.0000000000000","SEMIMAJOR_AXIS":"6811.678","PERIOD":"93.248","APOAPSIS":"446.606","PERIAPSIS":"420.479","OBJECT_TYPE":"DEBRIS","RCS_SIZE":"SMALL","COUNTRY_CODE":"PRC","LAUNCH_DATE":"1999-05-10","SITE":"TSC","DECAY_DATE":"2013-10-08","FILE":"1560406","GP_ID":"94030764","TLE_LINE0":"0 FENGYUN 1C DEB","TLE_LINE1":"1 30458U 99025AFV 13280.81192606  .17003521  00000-0  29554+0 0  9995","TLE_LINE2":"2 30458 098.5893 007.6895 0019178 012.3172 347.8536 15.44265561328571"},{"CCSDS_OMM_VERS":"3.0","COMMENT":"GENERATED VIA SPACE-TRACK.ORG API","CREATION_DATE":"2011-05-10T08:33:36","ORIGINATOR":"18 SPCS","OBJECT_NAME":"FENGYUN 1C DEB","OBJECT_ID":"1999-025AFW","CENTER_NAME":"EARTH","REF_FRAME":"TEME","TIME_SYSTEM":"UTC","MEAN_ELEMENT_THEORY":"SGP4","EPOCH":"2011-05-10T12:00:28.167264","MEAN_MOTION":"16.10014318","ECCENTRICITY":"0.00345570","INCLINATION":"99.0281","RA_OF_ASC_NODE":"74.3176","ARG_OF_PERICENTER":"175.3167","MEAN_ANOMALY":"184.9123","EPHEMERIS_TYPE":"0","CLASSIFICATION_TYPE":"U","NORAD_CAT_ID":"30459","ELEMENT_SET_NO":"999","REV_AT_EPOCH":"23693","BSTAR":"0.00249270000000","MEAN_MOTION_DOT":"0.02542946","MEAN_MOTION_DDOT":"0.0000000000000","SEMIMAJOR_AXIS":"6624.945","PERIOD":"89.440","APOAPSIS":"269.704","PERIAPSIS":"223.916","OBJECT_TYPE":"DEBRIS","RCS_SIZE":"SMALL","COUNTRY_CODE":"PRC","LAUNCH_DATE":"1999-05-10","SITE":"TSC","DECAY_DATE":"2011-05-10","FILE":"1086482","GP_ID":"83029149","TLE_LINE0":"0 FENGYUN 1C DEB","TLE_LINE1":"1 30459U 99025AFW 11130.50032601  .02542946  00000-0  24927-2 0  9997","TLE_LINE2":"2 30459 099.0281 074.3176 0034557 175.3167 184.9123 16.10014318236930"},{"CCSDS_OMM_VERS":"3.0","COMMENT":"GENERATED VIA SPACE-TRACK.ORG API","CREATION_DATE":"2011-04-14T05:24:32","ORIGINATOR":"18 SPCS","OBJECT_NAME":"FENGYUN 1C DEB","OBJECT_ID":"1999-025AFX","CENTER_NAME":"EARTH","REF_FRAME":"TEME","TIME_SYSTEM":"UTC","MEAN_ELEMENT_THEORY":"SGP4","EPOCH":"2011-04-11T20:54:53.348255","MEAN_MOTION":"16.19620430","ECCENTRICITY":"0.00213120","INCLINATION":"98.6947","RA_OF_ASC_NODE":"273.5875","ARG_OF_PERICENTER":"350.8847","MEAN_ANOMALY":"9.6667","EPHEMERIS_TYPE":"0","CLASSIFICATION_TYPE":"U","NORAD_CAT_ID":"30460","ELEMENT_SET_NO":"999","REV_AT_EPOCH":"22925","BSTAR":"0.01708100000000","MEAN_MOTION_DOT":"0.32688788","MEAN_MOTION_DDOT":"0.0000034853000","SEMIMAJOR_AXIS":"6598.723","PERIOD":"88.909","APOAPSIS":"234.652","PERIAPSIS":"206.525","OBJECT_TYPE":"DEBRIS","RCS_SIZE":"SMALL","COUNTRY_CODE":"PRC","LAUNCH_DATE":"1999-05-10","SITE":"TSC","DECAY_DATE":"2011-04-12","FILE":"1071853","GP_ID":"82630835","TLE_LINE0":"0 FENGYUN 1C DEB","TLE_LINE1":"1 30460U 99025AFX 11101.87145079  .32688788  34853-5  17081-1 0  9999","TLE_LINE2":"2 30460 098.6947 273.5875 0021312 350.8847 009.6667 16.19620430229255"},{"CCSDS_OMM_VERS":"3.0","COMMENT":"GENERATED VIA SPACE-TRACK.ORG API","CREATION_DATE":"2010-10-12T15:42:10","ORIGINATOR":"18 SPCS","OBJECT_NAME":"FENGYUN 1C DEB","OBJECT_ID":"1999-025AFY","CENTER_NAME":"EARTH","REF_FRAME":"TEME","TIME_SYSTEM":"UTC","MEAN_ELEMENT_THEORY":"SGP4","EPOCH":"2010-10-07T00:08:39.409151","MEAN_MOTION":"15.93500408","ECCENTRICITY":"0.00264650","INCLINATION":"98.8609","RA_OF_ASC_NODE":"105.9256","ARG_OF_PERICENTER":"274.8974","MEAN_ANOMALY":"92.2853","EPHEMERIS_TYPE":"0","CLASSIFICATION_TYPE":"U","NORAD_CAT_ID":"30461","ELEMENT_SET_NO":"999","REV_AT_EPOCH":"20212","BSTAR":"0.01207500000000","MEAN_MOTION_DOT":"0.03518794","MEAN_MOTION_DDOT":"0.0179030000000","SEMIMAJOR_AXIS":"6670.637","PERIOD":"90.367","APOAPSIS":"310.156","PERIAPSIS":"274.848","OBJECT_TYPE":"DEBRIS","RCS_SIZE":"SMALL","COUNTRY_CODE":"PRC","LAUNCH_DATE":"1999-05-10","SITE":"TSC","DECAY_DATE":"2010-10-08","FILE":"976582","GP_ID":"79947814","TLE_LINE0":"0 FENGYUN 1C DEB","TLE_LINE1":"1 30461U 99025AFY 10280.00601168  .03518794  17903-1  12075-1 0  9996","TLE_LINE2":"2 30461 098.8609 105.9256 0026465 274.8974 092.2853 15.93500408202129"},{"CCSDS_OMM_VERS":"3.0","COMMENT":"GENERATED VIA SPACE-TRACK.ORG API","CREATION_DATE":"2026-03-28T16:56:20","ORIGINATOR":"18 SPCS","OBJECT_NAME":"FENGYUN 1C DEB","OBJECT_ID":"1999-025AFZ","CENTER_NAME":"EARTH","REF_FRAME":"TEME","TIME_SYSTEM":"UTC","MEAN_ELEMENT_THEORY":"SGP4","EPOCH":"2026-03-28T11:04:22.930464","MEAN_MOTION":"14.06356595","ECCENTRICITY":"0.01388370","INCLINATION":"98.8287","RA_OF_ASC_NODE":"78.0509","ARG_OF_PERICENTER":"313.7826","MEAN_ANOMALY":"198.4694","EPHEMERIS_TYPE":"0","CLASSIFICATION_TYPE":"U","NORAD_CAT_ID":"30462","ELEMENT_SET_NO":"999","REV_AT_EPOCH":"98279","BSTAR":"0.00016800000000","MEAN_MOTION_DOT":"0.00000258","MEAN_MOTION_DDOT":"0.0000000000000","SEMIMAJOR_AXIS":"7250.003","PERIOD":"102.392","APOAPSIS":"972.525","PERIAPSIS":"771.211","OBJECT_TYPE":"DEBRIS","RCS_SIZE":"SMALL","COUNTRY_CODE":"PRC","LAUNCH_DATE":"1999-05-10","SITE":"TSC","DECAY_DATE":null,"FILE":"5104251","GP_ID":"317437768","TLE_LINE0":"0 FENGYUN 1C DEB","TLE_LINE1":"1 30462U 99025AFZ 26087.46137651  .00000258  00000-0  16800-3 0  9999","TLE_LINE2":"2 30462  98.8287  78.0509 0138837 313.7826 198.4694 14.06356595982798"},{"CCSDS_OMM_VERS":"3.0","COMMENT":"GENERATED VIA SPACE-TRACK.ORG API","CREATION_DATE":"2010-01-31T18:17:19","ORIGINATOR":"18 SPCS","OBJECT_NAME":"FENGYUN 1C DEB","OBJECT_ID":"1999-025AGA","CENTER_NAME":"EARTH","REF_FRAME":"TEME","TIME_SYSTEM":"UTC","MEAN_ELEMENT_THEORY":"SGP4","EPOCH":"2010-01-31T19:03:30.134591","MEAN_MOTION":"16.26208509","ECCENTRICITY":"0.00133400","INCLINATION":"98.8676","RA_OF_ASC_NODE":"212.3668","ARG_OF_PERICENTER":"204.5729","MEAN_ANOMALY":"168.3984","EPHEMERIS_TYPE":"0","CLASSIFICATION_TYPE":"U","NORAD_CAT_ID":"30463","ELEMENT_SET_NO":"999","REV_AT_EPOCH":"16770","BSTAR":"0.00449430000000","MEAN_MOTION_DOT":"0.14265016","MEAN_MOTION_DDOT":"0.0000034007000","SEMIMAJOR_AXIS":"6580.890","PERIOD":"88.549","APOAPSIS":"211.533","PERIAPSIS":"193.976","OBJECT_TYPE":"DEBRIS","RCS_SIZE":"SMALL","COUNTRY_CODE":"PRC","LAUNCH_DATE":"1999-05-10","SITE":"TSC","DECAY_DATE":"2010-02-03","FILE":"837793","GP_ID":"76259140","TLE_LINE0":"0 FENGYUN 1C DEB","TLE_LINE1":"1 30463U 99025AGA 10031.79409878  .14265016  34007-5  44943-2 0  9998","TLE_LINE2":"2 30463 098.8676 212.3668 0013340 204.5729 168.3984 16.26208509167709"},{"CCSDS_OMM_VERS":"3.0","COMMENT":"GENERATED VIA SPACE-TRACK.ORG API","CREATION_DATE":"2026-03-28T11:26:42","ORIGINATOR":"18 SPCS","OBJECT_NAME":"FENGYUN 1C DEB","OBJECT_ID":"1999-025AGB","CENTER_NAME":"EARTH","REF_FRAME":"TEME","TIME_SYSTEM":"UTC","MEAN_ELEMENT_THEORY":"SGP4","EPOCH":"2026-03-28T03:06:29.097216","MEAN_MOTION":"14.10285230","ECCENTRICITY":"0.01084217","INCLINATION":"98.8172","RA_OF_ASC_NODE":"140.5253","ARG_OF_PERICENTER":"321.3378","MEAN_ANOMALY":"63.6890","EPHEMERIS_TYPE":"0","CLASSIFICATION_TYPE":"U","NORAD_CAT_ID":"30464","ELEMENT_SET_NO":"999","REV_AT_EPOCH":"98549","BSTAR":"0.00007353394900","MEAN_MOTION_DOT":"0.00000093","MEAN_MOTION_DDOT":"0.0000000000000","SEMIMAJOR_AXIS":"7236.533","PERIOD":"102.107","APOAPSIS":"936.858","PERIAPSIS":"779.938","OBJECT_TYPE":"DEBRIS","RCS_SIZE":"SMALL","COUNTRY_CODE":"PRC","LAUNCH_DATE":"1999-05-10","SITE":"TSC","DECAY_DATE":null,"FILE":"5103506","GP_ID":"317395488","TLE_LINE0":"0 FENGYUN 1C DEB","TLE_LINE1":"1 30464U 99025AGB 26087.12950344  .00000093  00000-0  73534-4 0  9991","TLE_LINE2":"2 30464  98.8172 140.5253 0108422 321.3378  63.6890 14.10285230985491"},{"CCSDS_OMM_VERS":"3.0","COMMENT":"GENERATED VIA SPACE-TRACK.ORG API","CREATION_DATE":"2026-03-28T16:56:20","ORIGINATOR":"18 SPCS","OBJECT_NAME":"FENGYUN 1C DEB","OBJECT_ID":"1999-025AGC","CENTER_NAME":"EARTH","REF_FRAME":"TEME","TIME_SYSTEM":"UTC","MEAN_ELEMENT_THEORY":"SGP4","EPOCH":"2026-03-28T06:29:42.151200","MEAN_MOTION":"14.35097980","ECCENTRICITY":"0.00180960","INCLINATION":"98.8206","RA_OF_ASC_NODE":"182.7260","ARG_OF_PERICENTER":"86.6008","MEAN_ANOMALY":"338.5302","EPHEMERIS_TYPE":"0","CLASSIFICATION_TYPE":"U","NORAD_CAT_ID":"30465","ELEMENT_SET_NO":"999","REV_AT_EPOCH":"98871","BSTAR":"0.00167550000000","MEAN_MOTION_DOT":"0.00004747","MEAN_MOTION_DDOT":"0.0000000000000","SEMIMAJOR_AXIS":"7152.878","PERIOD":"100.342","APOAPSIS":"787.687","PERIAPSIS":"761.799","OBJECT_TYPE":"DEBRIS","RCS_SIZE":"SMALL","COUNTRY_CODE":"PRC","LAUNCH_DATE":"1999-05-10","SITE":"TSC","DECAY_DATE":null,"FILE":"5104252","GP_ID":"317437776","TLE_LINE0":"0 FENGYUN 1C DEB","TLE_LINE1":"1 30465U 99025AGC 26087.27062675  .00004747  00000-0  16755-2 0  9999","TLE_LINE2":"2 30465  98.8206 182.7260 0018096  86.6008 338.5302 14.35097980988714"}]